BRITE-PL2 (HEWELIUSZ)   
1 40119U 14049B   26068.87400651  .00002742  00000+0  26097-3 0  9997
2 40119  97.8982 180.2053 0015445  80.5248 279.7716 14.94186201626611
STARLINK-5820           
1 55781U 23028AS  26068.81119879 -.00000664  00000+0 -47828-4 0  9997
2 55781  70.0000 224.0872 0003108 269.6171  90.4631 14.98328950166559
