[{"OBJECT_NAME":"BRITE-PL2 (HEWELIUSZ)","OBJECT_ID":"2014-049B","EPOCH":"2026-03-09T20:58:34.162464","MEAN_MOTION":14.94186201,"ECCENTRICITY":0.00154454,"INCLINATION":97.8982,"RA_OF_ASC_NODE":180.2053,"ARG_OF_PERICENTER":80.5248,"MEAN_ANOMALY":279.7716,"EPHEMERIS_TYPE":0,"CLASSIFICATION_TYPE":"U","NORAD_CAT_ID":40119,"ELEMENT_SET_NO":999,"REV_AT_EPOCH":62661,"BSTAR":0.00026097212,"MEAN_MOTION_DOT":2.742e-5,"MEAN_MOTION_DDOT":0},{"OBJECT_NAME":"STARLINK-5820","OBJECT_ID":"2023-028AS","EPOCH":"2026-03-09T19:28:07.575456","MEAN_MOTION":14.9832895,"ECCENTRICITY":0.0003108,"INCLINATION":70,"RA_OF_ASC_NODE":224.0872,"ARG_OF_PERICENTER":269.6171,"MEAN_ANOMALY":90.4631,"EPHEMERIS_TYPE":0,"CLASSIFICATION_TYPE":"U","NORAD_CAT_ID":55781,"ELEMENT_SET_NO":999,"REV_AT_EPOCH":16655,"BSTAR":-4.7828208e-5,"MEAN_MOTION_DOT":-6.64e-6,"MEAN_MOTION_DDOT":0}]
